{"type": "FeatureCollection", "features": [ {"type": "Feature", "properties": {"norad_id": 32289, "name": "YAOGAN-3", "group": "resource", "lat": 1.3516995533044458, "lon": -153.3629478189486, "alt_km": 601.1209815695529, "timestamp": "2025-12-25T22:42:16.652992+00:00", "meta": {"OBJECT_NAME": "YAOGAN-3", "OBJECT_ID": "2007-055A", "EPOCH": "2025-12-25T18:40:56.674272", "MEAN_MOTION": 14.89918796, "ECCENTRICITY": 0.0001277, "INCLINATION": 97.8356, "RA_OF_ASC_NODE": 26.2848, "ARG_OF_PERICENTER": 84.2597, "MEAN_ANOMALY": 275.8766, "EPHEMERIS_TYPE": 0, "CLASSIFICATION_TYPE": "U", "NORAD_CAT_ID": 32289, "ELEMENT_SET_NO": 999, "REV_AT_EPOCH": 98003, "BSTAR": 0.0001387, "MEAN_MOTION_DOT": 1.279e-05, "MEAN_MOTION_DDOT": 0}, "tle": {"line1": "1 32289U 07055A   25359.77843373  .00001279  00000+0  13870-3 0  9997", "line2": "2 32289  97.8356  26.2848 0001277  84.2597 275.8766 14.89918796980039"}}, "geometry": {"type": "Point", "coordinates": [-153.3629478189486, 1.3516995533044458]}}, {"type": "Feature", "properties": {"norad_id": 32376, "name": "COSMO-SKYMED 2", "group": "resource", "lat": 82.10521132747095, "lon": 88.32667679156211, "alt_km": 614.1452316620071, "timestamp": "2025-12-25T22:42:16.653002+00:00", "meta": {"OBJECT_NAME": "COSMO-SKYMED 2", "OBJECT_ID": "2007-059A", "EPOCH": "2025-12-25T19:03:28.783296", "MEAN_MOTION": 14.82158476, "ECCENTRICITY": 0.0001307, "INCLINATION": 97.8806, "RA_OF_ASC_NODE": 180.9213, "ARG_OF_PERICENTER": 82.7969, "MEAN_ANOMALY": 277.3393, "EPHEMERIS_TYPE": 0, "CLASSIFICATION_TYPE": "U", "NORAD_CAT_ID": 32376, "ELEMENT_SET_NO": 999, "REV_AT_EPOCH": 97631, "BSTAR": 7.8294e-05, "MEAN_MOTION_DOT": 5.71e-06, "MEAN_MOTION_DDOT": 0}, "tle": {"line1": "1 32376U 07059A   25359.79408314  .00000571  00000+0  78294-4 0  9998", "line2": "2 32376  97.8806 180.9213 0001307  82.7969 277.3393 14.82158476976313"}}, "geometry": {"type": "Point", "coordinates": [88.32667679156211, 82.10521132747095]}}, {"type": "Feature", "properties": {"norad_id": 32382, "name": "RADARSAT-2", "group": "resource", "lat": 79.04725152752269, "lon": -46.92681367479764, "alt_km": 783.6027867164494, "timestamp": "2025-12-25T22:42:16.653013+00:00", "meta": {"OBJECT_NAME": "RADARSAT-2", "OBJECT_ID": "2007-061A", "EPOCH": "2025-12-25T18:57:30.963744", "MEAN_MOTION": 14.29984428, "ECCENTRICITY": 0.0001132, "INCLINATION": 98.5797, "RA_OF_ASC_NODE": 4.19, "ARG_OF_PERICENTER": 85.3609, "MEAN_ANOMALY": 274.7703, "EPHEMERIS_TYPE": 0, "CLASSIFICATION_TYPE": "U", "NORAD_CAT_ID": 32382, "ELEMENT_SET_NO": 999, "REV_AT_EPOCH": 94117, "BSTAR": -2.1604e-05, "MEAN_MOTION_DOT": -9.9e-07, "MEAN_MOTION_DDOT": 0}, "tle": {"line1": "1 32382U 07061A   25359.78994171 -.00000099  00000+0 -21604-4 0  9998", "line2": "2 32382  98.5797   4.1900 0001132  85.3609 274.7703 14.29984428941170"}}, "geometry": {"type": "Point", "coordinates": [-46.92681367479764, 79.04725152752269]}}, {"type": "Feature", "properties": {"norad_id": 32783, "name": "CARTOSAT-2A", "group": "resource", "lat": 75.57625333664205, "lon": 17.193163244412766, "alt_km": 628.945212308563, "timestamp": "2025-12-25T22:42:16.653024+00:00", "meta": {"OBJECT_NAME": "CARTOSAT-2A", "OBJECT_ID": "2008-021A", "EPOCH": "2025-12-25T17:28:58.488672", "MEAN_MOTION": 14.78954917, "ECCENTRICITY": 0.0010953, "INCLINATION": 97.7908, "RA_OF_ASC_NODE": 49.1447, "ARG_OF_PERICENTER": 321.5114, "MEAN_ANOMALY": 38.5316, "EPHEMERIS_TYPE": 0, "CLASSIFICATION_TYPE": "U", "NORAD_CAT_ID": 32783, "ELEMENT_SET_NO": 999, "REV_AT_EPOCH": 95316, "BSTAR": 0.00012249, "MEAN_MOTION_DOT": 8.54e-06, "MEAN_MOTION_DDOT": 0}, "tle": {"line1": "1 32783U 08021A   25359.72845473  .00000854  00000+0  12249-3 0  9995", "line2": "2 32783  97.7908  49.1447 0010953 321.5114  38.5316 14.78954917953164"}}, "geometry": {"type": "Point", "coordinates": [17.193163244412766, 75.57625333664205]}}, {"type": "Feature", "properties": {"norad_id": 33320, "name": "HUANJING 1A (HJ-1A)", "group": "resource", "lat": 24.53168025453164, "lon": 171.21239889235886, "alt_km": 630.7006028200976, "timestamp": "2025-12-25T22:42:16.653035+00:00", "meta": {"OBJECT_NAME": "HUANJING 1A (HJ-1A)", "OBJECT_ID": "2008-041A", "EPOCH": "2025-12-25T18:46:12.075744", "MEAN_MOTION": 14.83432278, "ECCENTRICITY": 0.0019138, "INCLINATION": 97.6551, "RA_OF_ASC_NODE": 347.536, "ARG_OF_PERICENTER": 352.6693, "MEAN_ANOMALY": 7.4239, "EPHEMERIS_TYPE": 0, "CLASSIFICATION_TYPE": "U", "NORAD_CAT_ID": 33320, "ELEMENT_SET_NO": 999, "REV_AT_EPOCH": 93269, "BSTAR": 0.0001658, "MEAN_MOTION_DOT": 1.314e-05, "MEAN_MOTION_DDOT": 0}, "tle": {"line1": "1 33320U 08041A   25359.78208421  .00001314  00000+0  16580-3 0  9991", "line2": "2 33320  97.6551 347.5360 0019138 352.6693   7.4239 14.83432278932696"}}, "geometry": {"type": "Point", "coordinates": [171.21239889235886, 24.53168025453164]}}, {"type": "Feature", "properties": {"norad_id": 33321, "name": "HUANJING 1B (HJ-1B)", "group": "resource", "lat": -11.534237791179992, "lon": -7.074695764692458, "alt_km": 606.1629921356998, "timestamp": "2025-12-25T22:42:16.653046+00:00", "meta": {"OBJECT_NAME": "HUANJING 1B (HJ-1B)", "OBJECT_ID": "2008-041B", "EPOCH": "2025-12-25T17:53:53.588832", "MEAN_MOTION": 14.828555, "ECCENTRICITY": 0.0037683, "INCLINATION": 97.6409, "RA_OF_ASC_NODE": 351.164, "ARG_OF_PERICENTER": 34.5635, "MEAN_ANOMALY": 325.8018, "EPHEMERIS_TYPE": 0, "CLASSIFICATION_TYPE": "U", "NORAD_CAT_ID": 33321, "ELEMENT_SET_NO": 999, "REV_AT_EPOCH": 93270, "BSTAR": 0.00020844, "MEAN_MOTION_DOT": 1.657e-05, "MEAN_MOTION_DDOT": 0}, "tle": {"line1": "1 33321U 08041B   25359.74575913  .00001657  00000+0  20844-3 0  9999", "line2": "2 33321  97.6409 351.1640 0037683  34.5635 325.8018 14.82855500932708"}}, "geometry": {"type": "Point", "coordinates": [-7.074695764692458, -11.534237791179992]}}, {"type": "Feature", "properties": {"norad_id": 33331, "name": "GEOEYE 1", "group": "resource", "lat": -15.678107084623104, "lon": -111.23831809196332, "alt_km": 680.9648889139926, "timestamp": "2025-12-25T22:42:16.653056+00:00", "meta": {"OBJECT_NAME": "GEOEYE 1", "OBJECT_ID": "2008-042A", "EPOCH": "2025-12-25T16:53:42.169920", "MEAN_MOTION": 14.64717406, "ECCENTRICITY": 0.0003027, "INCLINATION": 98.1237, "RA_OF_ASC_NODE": 70.8204, "ARG_OF_PERICENTER": 228.8198, "MEAN_ANOMALY": 131.2744, "EPHEMERIS_TYPE": 0, "CLASSIFICATION_TYPE": "U", "NORAD_CAT_ID": 33331, "ELEMENT_SET_NO": 999, "REV_AT_EPOCH": 92475, "BSTAR": 0.0001273, "MEAN_MOTION_DOT": 6.3e-06, "MEAN_MOTION_DDOT": 0}, "tle": {"line1": "1 33331U 08042A   25359.70396030  .00000630  00000+0  12730-3 0  9993", "line2": "2 33331  98.1237  70.8204 0003027 228.8198 131.2744 14.64717406924755"}}, "geometry": {"type": "Point", "coordinates": [-111.23831809196332, -15.678107084623104]}}, {"type": "Feature", "properties": {"norad_id": 33396, "name": "THEOS", "group": "resource", "lat": 80.49793650842065, "lon": -57.87188583424075, "alt_km": 816.7326548573965, "timestamp": "2025-12-25T22:42:16.653067+00:00", "meta": {"OBJECT_NAME": "THEOS", "OBJECT_ID": "2008-049A", "EPOCH": "2025-12-25T18:52:53.126400", "MEAN_MOTION": 14.20100081, "ECCENTRICITY": 0.0001183, "INCLINATION": 98.5844, "RA_OF_ASC_NODE": 57.4902, "ARG_OF_PERICENTER": 92.8267, "MEAN_ANOMALY": 267.3045, "EPHEMERIS_TYPE": 0, "CLASSIFICATION_TYPE": "U", "NORAD_CAT_ID": 33396, "ELEMENT_SET_NO": 999, "REV_AT_EPOCH": 89335, "BSTAR": 0.00018158, "MEAN_MOTION_DOT": 3.44e-06, "MEAN_MOTION_DDOT": 0}, "tle": {"line1": "1 33396U 08049A   25359.78672600  .00000344  00000+0  18158-3 0  9991", "line2": "2 33396  98.5844  57.4902 0001183  92.8267 267.3045 14.20100081893350"}}, "geometry": {"type": "Point", "coordinates": [-57.87188583424075, 80.49793650842065]}}, {"type": "Feature", "properties": {"norad_id": 33412, "name": "COSMO-SKYMED 3", "group": "resource", "lat": -82.05143694565835, "lon": -68.50823556197648, "alt_km": 566.8052519960938, "timestamp": "2025-12-25T22:42:16.653077+00:00", "meta": {"OBJECT_NAME": "COSMO-SKYMED 3", "OBJECT_ID": "2008-054A", "EPOCH": "2025-12-25T18:18:50.670144", "MEAN_MOTION": 15.05467207, "ECCENTRICITY": 0.0017184, "INCLINATION": 97.8451, "RA_OF_ASC_NODE": 210.3753, "ARG_OF_PERICENTER": 129.8246, "MEAN_ANOMALY": 230.4495, "EPHEMERIS_TYPE": 0, "CLASSIFICATION_TYPE": "U", "NORAD_CAT_ID": 33412, "ELEMENT_SET_NO": 999, "REV_AT_EPOCH": 93083, "BSTAR": 0.00037971, "MEAN_MOTION_DOT": 5.409e-05, "MEAN_MOTION_DDOT": 0}, "tle": {"line1": "1 33412U 08054A   25359.76308646  .00005409  00000+0  37971-3 0  9991", "line2": "2 33412  97.8451 210.3753 0017184 129.8246 230.4495 15.05467207930830"}}, "geometry": {"type": "Point", "coordinates": [-68.50823556197648, -82.05143694565835]}}, {"type": "Feature", "properties": {"norad_id": 33446, "name": "YAOGAN-4", "group": "resource", "lat": -72.3829452990534, "lon": 83.91586661178744, "alt_km": 619.6555415111161, "timestamp": "2025-12-25T22:42:16.653087+00:00", "meta": {"OBJECT_NAME": "YAOGAN-4", "OBJECT_ID": "2008-061A", "EPOCH": "2025-12-25T18:19:17.173344", "MEAN_MOTION": 14.8271976, "ECCENTRICITY": 0.0012966, "INCLINATION": 97.9198, "RA_OF_ASC_NODE": 289.7359, "ARG_OF_PERICENTER": 277.0684, "MEAN_ANOMALY": 82.9055, "EPHEMERIS_TYPE": 0, "CLASSIFICATION_TYPE": "U", "NORAD_CAT_ID": 33446, "ELEMENT_SET_NO": 999, "REV_AT_EPOCH": 91996, "BSTAR": 0.00018511, "MEAN_MOTION_DOT": 1.442e-05, "MEAN_MOTION_DDOT": 0}, "tle": {"line1": "1 33446U 08061A   25359.76339321  .00001442  00000+0  18511-3 0  9992", "line2": "2 33446  97.9198 289.7359 0012966 277.0684  82.9055 14.82719760919964"}}, "geometry": {"type": "Point", "coordinates": [83.91586661178744, -72.3829452990534]}}]}